[{"OBJECT_NAME":"COSMO-SKYMED 4","OBJECT_ID":"2010-060A","EPOCH":"2026-03-10T00:01:02.517312","MEAN_MOTION":14.82164751,"ECCENTRICITY":0.00013936,"INCLINATION":97.8865,"RA_OF_ASC_NODE":254.0323,"ARG_OF_PERICENTER":85.3865,"MEAN_ANOMALY":274.7507,"EPHEMERIS_TYPE":0,"CLASSIFICATION_TYPE":"U","NORAD_CAT_ID":37216,"ELEMENT_SET_NO":999,"REV_AT_EPOCH":82987,"BSTAR":0.00016215676,"MEAN_MOTION_DOT":1.239e-5,"MEAN_MOTION_DDOT":0},{"OBJECT_NAME":"CZ-4B DEB","OBJECT_ID":"2003-049E","EPOCH":"2026-03-09T23:28:24.749472","MEAN_MOTION":14.67264833,"ECCENTRICITY":0.00672073,"INCLINATION":98.4844,"RA_OF_ASC_NODE":74.7679,"ARG_OF_PERICENTER":203.3243,"MEAN_ANOMALY":156.4908,"EPHEMERIS_TYPE":0,"CLASSIFICATION_TYPE":"U","NORAD_CAT_ID":31139,"ELEMENT_SET_NO":999,"REV_AT_EPOCH":99769,"BSTAR":0.0007561472,"MEAN_MOTION_DOT":4.355e-5,"MEAN_MOTION_DDOT":0}]
